[{"OBJECT_NAME":"STARLINK-5250","OBJECT_ID":"2022-141AV","EPOCH":"2026-03-09T04:13:26.246208","MEAN_MOTION":15.08837396,"ECCENTRICITY":0.00013598,"INCLINATION":53.2188,"RA_OF_ASC_NODE":356.1898,"ARG_OF_PERICENTER":85.347,"MEAN_ANOMALY":274.7677,"EPHEMERIS_TYPE":0,"CLASSIFICATION_TYPE":"U","NORAD_CAT_ID":54200,"ELEMENT_SET_NO":999,"REV_AT_EPOCH":18592,"BSTAR":3.2268615e-5,"MEAN_MOTION_DOT":2.26e-6,"MEAN_MOTION_DDOT":0},{"OBJECT_NAME":"CZ-2F DEB","OBJECT_ID":"2022-093H","EPOCH":"2026-03-09T22:47:12.359904","MEAN_MOTION":15.21733628,"ECCENTRICITY":0.00740619,"INCLINATION":50.0217,"RA_OF_ASC_NODE":315.3952,"ARG_OF_PERICENTER":34.8084,"MEAN_ANOMALY":325.7683,"EPHEMERIS_TYPE":0,"CLASSIFICATION_TYPE":"U","NORAD_CAT_ID":53364,"ELEMENT_SET_NO":999,"REV_AT_EPOCH":19831,"BSTAR":0.00048014935,"MEAN_MOTION_DOT":0.00011557,"MEAN_MOTION_DDOT":0}]
